NOAA 15                 
1 25338U 98030A   20224.93631028  .00000043  00000-0  36471-4 0  9995
2 25338  98.7144 249.6970 0011583 100.8051 259.4433 14.25984668156887
DMSP 5D-3 F15 (USA 147) 
1 25991U 99067A   20224.96394887 -.00000110  00000-0 -32325-4 0  9994
2 25991  98.9738 196.7677 0009139 308.0408 121.5291 14.16476263 68285
METEOSAT-8 (MSG-1)      
1 27509U 02040B   20224.69274645  .00000137  00000-0  00000+0 0  9992
2 27509   6.8179  53.8581 0001408  93.8745 103.6198  1.00271406 65836
DMSP 5D-3 F16 (USA 172) 
1 28054U 03048A   20224.93540667 -.00000099  00000-0 -28931-4 0  9991
2 28054  98.9158 203.8146 0008562  68.0474 346.0732 14.13649020867629
NOAA 18                 
1 28654U 05018A   20224.90978515  .00000041  00000-0  46683-4 0  9999
2 28654  99.0396 281.8453 0015258  76.7523 283.5350 14.12531407784749
METEOSAT-9 (MSG-2)      
1 28912U 05049B   20224.82867302  .00000018  00000-0  00000+0 0  9994
2 28912   4.5379  69.9200 0001990  26.3031 166.2358  1.00276498 53660
FORMOSAT-3 FM6          
1 29047U 06011A   20224.78844040  .00000103  00000-0  56661-4 0  9997
2 29047  71.9802 357.0486 0051442 325.0541  34.7221 14.28747016749223
FORMOSAT-3 FM1          
1 29048U 06011B   20224.87849480  .00000057  00000-0  39009-4 0  9996
2 29048  71.9651 267.7117 0045738 283.9671  75.6382 14.28710652751727
FORMOSAT-3 FM5          
1 29049U 06011C   20224.87641321  .00000032  00000-0  28945-4 0  9991
2 29049  72.0201  79.6790 0036309 309.1645  50.6267 14.28792293747512
FORMOSAT-3 FM3          
1 29050U 06011D   20224.40684657  .00000109  00000-0  33237-4 0  9996
2 29050  72.0139 221.1106 0051334 226.7038 132.9829 14.58936505764442
FORMOSAT-3 FM4          
1 29051U 06011E   20224.59524252  .00000047  00000-0  34210-4 0  9994
2 29051  72.0072 342.1982 0068456 190.9361 169.0292 14.28823177750064
FORMOSAT-3 FM2          
1 29052U 06011F   20224.87085202  .00000030  00000-0  27912-4 0  9996
2 29052  72.0340  56.0082 0041671 270.0414  89.5948 14.28929226747617
GOES 13                 
1 29155U 06018A   20224.55316906  .00000040  00000-0  00000-0 0  9996
2 29155   0.0692 200.0112 0007658 357.2891  23.5702  1.00269793 21951
METOP-A                 
1 29499U 06044A   20224.88556713 -.00000019  00000-0  10556-4 0  9992
2 29499  98.5180 269.7631 0001804  96.6282 240.4726 14.21503677716753
DMSP 5D-3 F17 (USA 191) 
1 29522U 06050A   20224.89067040 -.00000046  00000-0 -14295-5 0  9993
2 29522  98.8002 240.4540 0010327  26.3272 333.8424 14.14014749710542
FENGYUN 3A              
1 32958U 08026A   20224.93061646 -.00000002  00000-0  18866-4 0  9994
2 32958  98.4097 207.8046 0008809 168.4957 191.6423 14.18630678632582
FENGYUN 2E              
1 33463U 08066A   20223.59146521 -.00000205  00000-0  00000-0 0  9999
2 33463   4.4511  68.3847 0002633 299.7005 251.0210  1.00272950 42663
NOAA 19                 
1 33591U 09005A   20224.91750424  .00000025  00000-0  38800-4 0  9997
2 33591  99.1958 231.7085 0012960 281.3954  78.5761 14.12426374592969
GOES 14                 
1 35491U 09033A   20224.60374797 -.00000091  00000-0  00000-0 0  9991
2 35491   0.4484  97.6683 0010155 116.8063 218.8653  1.00270740 40705
METEOR-M 1              
1 35865U 09049A   20224.88466757  .00000018  00000-0  26874-4 0  9990
2 35865  98.4419 209.5785 0003191  49.4877 310.6579 14.22245699565655
DMSP 5D-3 F18 (USA 210) 
1 35951U 09057A   20224.89876147  .00000104  00000-0  78002-4 0  9990
2 35951  98.6475 212.9325 0010398 204.6826 155.3850 14.13292039331511
GOES 15                 
1 36411U 10008A   20224.73070708  .00000055  00000-0  00000+0 0  9995
2 36411   0.0247 150.6724 0001953 310.8379 354.0139  1.00280399 38259
COMS 1                  
1 36744U 10032A   20224.63822403 -.00000343  00000-0  00000-0 0  9999
2 36744   0.0271  89.9039 0000574  50.7603 177.7949  1.00271706 29673
FENGYUN 3B              
1 37214U 10059A   20224.88942815 -.00000014  00000-0  15930-4 0  9995
2 37214  99.0489 207.4900 0017966 109.0288 251.2834 14.15954144505527
SUOMI NPP               
1 37849U 11061A   20224.86899432  .00000003  00000-0  22087-4 0  9995
2 37849  98.7376 162.0538 0001595  87.2871 308.8845 14.19541233455497
FENGYUN 2F              
1 38049U 12002A   20223.15459881 -.00000360  00000-0  00000+0 0  9998
2 38049   2.1834  83.4983 0000765  77.6256 325.6675  1.00280803 31460
METEOSAT-10 (MSG-3)     
1 38552U 12035B   20224.82989431  .00000065  00000-0  00000-0 0  9999
2 38552   1.3641 343.0216 0001535 139.9473 145.9707  1.00270317 29475
METOP-B                 
1 38771U 12049A   20224.90584975 -.00000023  00000-0  94723-5 0  9995
2 38771  98.6876 283.3556 0001282 146.0007  27.5249 14.21501942409905
FENGYUN 3C              
1 39260U 13052A   20224.88970545 -.00000012  00000-0  15264-4 0  9993
2 39260  98.5459 273.0255 0012094  60.3646 299.8732 14.15843001356390
METEOR-M 2              
1 40069U 14037A   20224.90062905 -.00000019  00000-0  10799-4 0  9996
2 40069  98.4984 260.3295 0006775 116.6676 243.5188 14.20674460316081
HIMAWARI-8              
1 40267U 14060A   20224.85606509 -.00000274  00000-0  00000-0 0  9993
2 40267   0.0420 261.1648 0000868 282.2983 226.1392  1.00270695 21346
FENGYUN 2G              
1 40367U 14090A   20224.84786491 -.00000300  00000-0  00000+0 0  9994
2 40367   2.2117  93.8958 0001384 337.4493 294.1409  1.00267558 20629
METEOSAT-11 (MSG-4)     
1 40732U 15034A   20224.82806235  .00000001  00000-0  00000-0 0  9994
2 40732   0.7110 272.1632 0003449 227.2954 119.6075  1.00276192 18625
ELEKTRO-L 2             
1 41105U 15074A   20224.82666657 -.00000195  00000-0  00000+0 0  9999
2 41105   1.3294  96.6037 0074865  88.6201  65.4901  0.99187643 17109
HIMAWARI-9              
1 41836U 16064A   20224.85606509 -.00000273  00000-0  00000-0 0  9991
2 41836   0.0077 274.0830 0000943 260.5026 235.1243  1.00272516 13771
GOES 16                 
1 41866U 16071A   20224.52595147 -.00000247  00000-0  00000-0 0  9992
2 41866   0.0541 123.5024 0000679  69.3034 241.7670  1.00273640 13690
FENGYUN 4A              
1 41882U 16077A   20221.43313296 -.00000337  00000-0  00000+0 0  9995
2 41882   0.0706  78.5185 0004322  59.2940  80.1939  1.00270997 13539
CYGFM05                 
1 41884U 16078A   20224.85180502  .00000274  00000-0  16177-4 0  9995
2 41884  34.9567  75.8299 0015918 183.8732 176.1858 15.14660389202516
CYGFM04                 
1 41885U 16078B   20224.86925227  .00000278  00000-0  16169-4 0  9993
2 41885  34.9500  68.6177 0014438 194.9606 165.0680 15.15173409202588
CYGFM02                 
1 41886U 16078C   20224.86208880  .00000262  00000-0  15330-4 0  9995
2 41886  34.9592  70.4319 0015118 190.6560 169.3833 15.15172261202578
CYGFM01                 
1 41887U 16078D   20224.89322228  .00000266  00000-0  15855-4 0  9998
2 41887  34.9534  76.7948 0016380 184.7631 175.2926 15.14472928202501
CYGFM08                 
1 41888U 16078E   20224.86976194  .00000256  00000-0  15146-4 0  9995
2 41888  34.9506  72.4905 0015651 191.8036 168.2310 15.14888569202539
CYGFM06                 
1 41889U 16078F   20224.84121474  .00000273  00000-0  15928-4 0  9994
2 41889  34.9585  69.2526 0014075 190.7314 169.3099 15.15166268202572
CYGFM07                 
1 41890U 16078G   20224.88553761  .00000284  00000-0  16455-4 0  9996
2 41890  34.9525  68.0446 0013889 194.3972 165.6345 15.15164784202583
CYGFM03                 
1 41891U 16078H   20224.88111811  .00000287  00000-0  16634-4 0  9995
2 41891  34.9557  68.3338 0013346 193.2572 166.7790 15.15160387202585
FENGYUN 3D              
1 43010U 17072A   20224.90190897 -.00000030  00000-0  67978-5 0  9994
2 43010  98.7525 163.6072 0000550 328.7496  31.3648 14.19746325142060
NOAA 20                 
1 43013U 17073A   20224.82658019 -.00000019  00000-0  11558-4 0  9993
2 43013  98.7189 161.9208 0001141 104.9494 255.1809 14.19559127141516
GOES 17                 
1 43226U 18022A   20224.72878789  .00000099  00000-0  00000+0 0  9993
2 43226   0.0475 272.3951 0000280 251.8064 281.6217  1.00270851  9022
FENGYUN 2H              
1 43491U 18050A   20224.93241641 -.00000125  00000-0  00000-0 0  9994
2 43491   0.5298 271.5913 0003336 234.1673 229.6865  1.00276111  8102
METOP-C                 
1 43689U 18087A   20224.90936367 -.00000021  00000-0  10472-4 0  9999
2 43689  98.6939 283.6851 0002457 156.3869 203.7421 14.21500298 91477
GEO-KOMPSAT-2A          
1 43823U 18100A   20224.71003216 -.00000343  00000-0  00000-0 0  9991
2 43823   0.0162 140.6394 0002125 341.4770 222.3668  1.00272081  6190
IOD-1 GEMS              
1 44385U 98067QK  20224.81368429  .00017111  00000-0  19989-3 0  9995
2 44385  51.6400  53.7339 0002204 167.9556 192.1491 15.61716191 63148
METEOR-M2 2             
1 44387U 19038A   20224.88831287 -.00000020  00000-0  10140-4 0  9995
2 44387  98.6235 183.8428 0002525  78.9072 281.2391 14.23680350 57428
